{
    "links": {
        "self": "http://www.neowsapp.com/rest/v1/neo/3778621?api_key=iIulBulltgU6a56xZRHN4H3l9WmuAYTsLGpBGhQ2"
    },
    "id": "3778621",
    "neo_reference_id": "3778621",
    "name": "(2017 OV18)",
    "designation": "2017 OV18",
    "nasa_jpl_url": "http://ssd.jpl.nasa.gov/sbdb.cgi?sstr=3778621",
    "absolute_magnitude_h": 23.4,
    "estimated_diameter": {
        "kilometers": {
            "estimated_diameter_min": 0.0555334912,
            "estimated_diameter_max": 0.1241766613
        },
        "meters": {
            "estimated_diameter_min": 55.5334911581,
            "estimated_diameter_max": 124.1766612574
        },
        "miles": {
            "estimated_diameter_min": 0.0345069009,
            "estimated_diameter_max": 0.0771597762
        },
        "feet": {
            "estimated_diameter_min": 182.1964991311,
            "estimated_diameter_max": 407.4037573197
        }
    },
    "is_potentially_hazardous_asteroid": false,
    "close_approach_data": [
        {
            "close_approach_date": "2017-08-03",
            "close_approach_date_full": "2017-Aug-03 23:48",
            "epoch_date_close_approach": 1501804080000,
            "relative_velocity": {
                "kilometers_per_second": "9.0422231891",
                "kilometers_per_hour": "32552.003480928",
                "miles_per_hour": "20226.5490518022"
            },
            "miss_distance": {
                "astronomical": "0.1667597539",
                "lunar": "64.8695442671",
                "kilometers": "24946903.985164193",
                "miles": "15501287.3321361434"
            },
            "orbiting_body": "Earth"
        }
    ],
    "orbital_data": {
        "orbit_id": "3",
        "orbit_determination_date": "2017-08-21 06:17:58",
        "first_observation_date": "2017-07-27",
        "last_observation_date": "2017-08-20",
        "data_arc_in_days": 24,
        "observations_used": 24,
        "orbit_uncertainty": "8",
        "minimum_orbit_intersection": ".166366",
        "jupiter_tisserand_invariant": "3.961",
        "epoch_osculation": "2457962.5",
        "eccentricity": ".3416158516204334",
        "semi_major_axis": "1.792803437764637",
        "inclination": "16.43013467244203",
        "ascending_node_longitude": "130.7170163456523",
        "orbital_period": "876.7937417835004",
        "perihelion_distance": "1.18035336458463",
        "perihelion_argument": "184.2412152065189",
        "aphelion_distance": "2.405253510944644",
        "perihelion_time": "2457973.834781924786",
        "mean_anomaly": "355.3460873424772",
        "mean_motion": ".4105868721960973",
        "equinox": "J2000",
        "orbit_class": {
            "orbit_class_type": "AMO",
            "orbit_class_description": "Near-Earth asteroid orbits similar to that of 1221 Amor",
            "orbit_class_range": "1.017 AU < q (perihelion) < 1.3 AU"
        }
    },
    "is_sentry_object": false
}